SMDC ONE 2.4            
1 39469U 13072H   26068.55980652  .00015821  00000+0  65974-3 0  9996
2 39469 120.4883 328.0945 0137633 267.6479  90.8828 15.15767863102719
STARLINK-32516          
1 62176U 24225P   26068.69801935  .00006458  00000+0  54835-3 0  9990
2 62176  70.0022 164.5399 0003445 273.3746  86.7019 14.98339257 69872
